{"type": "FeatureCollection", "features": [ {"type": "Feature", "properties": {"norad_id": 30879, "name": "FENGYUN 1C DEB", "group": "fengyun-1c-debris", "lat": 18.30040527546129, "lon": -153.20892009471046, "alt_km": 729.097384127338, "timestamp": "2025-12-18T10:51:26.086164+00:00", "meta": {"OBJECT_NAME": "FENGYUN 1C DEB", "OBJECT_ID": "1999-025AXR", "EPOCH": "2025-12-17T13:30:02.638656", "MEAN_MOTION": 14.67597309, "ECCENTRICITY": 0.02014123, "INCLINATION": 99.3511, "RA_OF_ASC_NODE": 208.8996, "ARG_OF_PERICENTER": 265.2476, "MEAN_ANOMALY": 92.5699, "EPHEMERIS_TYPE": 0, "CLASSIFICATION_TYPE": "U", "NORAD_CAT_ID": 30879, "ELEMENT_SET_NO": 999, "REV_AT_EPOCH": 62010, "BSTAR": 0.0029649281, "MEAN_MOTION_DOT": 0.00022884, "MEAN_MOTION_DDOT": 0}, "tle": {"line1": "1 30879U 99025AXR 25351.56253054  .00022884  00000+0  29649-2 0  9993", "line2": "2 30879  99.3511 208.8996 0201412 265.2476  92.5699 14.67597309620101"}}, "geometry": {"type": "Point", "coordinates": [-153.20892009471046, 18.30040527546129]}}, {"type": "Feature", "properties": {"norad_id": 30880, "name": "FENGYUN 1C DEB", "group": "fengyun-1c-debris", "lat": 44.018717405288406, "lon": 55.707162175794096, "alt_km": 791.7259747206272, "timestamp": "2025-12-18T10:51:26.086174+00:00", "meta": {"OBJECT_NAME": "FENGYUN 1C DEB", "OBJECT_ID": "1999-025AXS", "EPOCH": "2025-12-17T16:07:12.377856", "MEAN_MOTION": 14.25629068, "ECCENTRICITY": 0.0022011, "INCLINATION": 98.7951, "RA_OF_ASC_NODE": 63.5283, "ARG_OF_PERICENTER": 93.6354, "MEAN_ANOMALY": 266.7343, "EPHEMERIS_TYPE": 0, "CLASSIFICATION_TYPE": "U", "NORAD_CAT_ID": 30880, "ELEMENT_SET_NO": 999, "REV_AT_EPOCH": 96784, "BSTAR": 0.0010220139, "MEAN_MOTION_DOT": 2.383e-05, "MEAN_MOTION_DDOT": 0}, "tle": {"line1": "1 30880U 99025AXS 25351.67167104  .00002383  00000+0  10220-2 0  9994", "line2": "2 30880  98.7951  63.5283 0022011  93.6354 266.7343 14.25629068967841"}}, "geometry": {"type": "Point", "coordinates": [55.707162175794096, 44.018717405288406]}}, {"type": "Feature", "properties": {"norad_id": 30882, "name": "FENGYUN 1C DEB", "group": "fengyun-1c-debris", "lat": 70.62339689509663, "lon": 24.39691285551169, "alt_km": 531.7096447633567, "timestamp": "2025-12-18T10:51:26.086185+00:00", "meta": {"OBJECT_NAME": "FENGYUN 1C DEB", "OBJECT_ID": "1999-025AXU", "EPOCH": "2025-12-17T10:18:53.495712", "MEAN_MOTION": 14.86795704, "ECCENTRICITY": 0.01527867, "INCLINATION": 97.9428, "RA_OF_ASC_NODE": 46.764, "ARG_OF_PERICENTER": 25.5168, "MEAN_ANOMALY": 335.3489, "EPHEMERIS_TYPE": 0, "CLASSIFICATION_TYPE": "U", "NORAD_CAT_ID": 30882, "ELEMENT_SET_NO": 999, "REV_AT_EPOCH": 99724, "BSTAR": 0.00070873756, "MEAN_MOTION_DOT": 7.762e-05, "MEAN_MOTION_DDOT": 0}, "tle": {"line1": "1 30882U 99025AXU 25351.42978583  .00007762  00000+0  70874-3 0  9998", "line2": "2 30882  97.9428  46.7640 0152786  25.5168 335.3489 14.86795704997242"}}, "geometry": {"type": "Point", "coordinates": [24.39691285551169, 70.62339689509663]}}, {"type": "Feature", "properties": {"norad_id": 30883, "name": "FENGYUN 1C DEB", "group": "fengyun-1c-debris", "lat": 45.85982216869574, "lon": 20.46185352026365, "alt_km": 910.2303811575712, "timestamp": "2025-12-18T10:51:26.086195+00:00", "meta": {"OBJECT_NAME": "FENGYUN 1C DEB", "OBJECT_ID": "1999-025AXV", "EPOCH": "2025-12-15T08:14:08.255040", "MEAN_MOTION": 14.14551541, "ECCENTRICITY": 0.01119962, "INCLINATION": 98.3618, "RA_OF_ASC_NODE": 26.2665, "ARG_OF_PERICENTER": 206.3636, "MEAN_ANOMALY": 216.3737, "EPHEMERIS_TYPE": 0, "CLASSIFICATION_TYPE": "U", "NORAD_CAT_ID": 30883, "ELEMENT_SET_NO": 999, "REV_AT_EPOCH": 96954, "BSTAR": 0.00020026857, "MEAN_MOTION_DOT": 3.68e-06, "MEAN_MOTION_DDOT": 0}, "tle": {"line1": "1 30883U 99025AXV 25349.34315110  .00000368  00000+0  20027-3 0  9998", "line2": "2 30883  98.3618  26.2665 0111996 206.3636 216.3737 14.14551541969542"}}, "geometry": {"type": "Point", "coordinates": [20.46185352026365, 45.85982216869574]}}, {"type": "Feature", "properties": {"norad_id": 30884, "name": "FENGYUN 1C DEB", "group": "fengyun-1c-debris", "lat": 45.320417107335636, "lon": 175.93586866234017, "alt_km": 692.13953581236, "timestamp": "2025-12-18T10:51:26.086205+00:00", "meta": {"OBJECT_NAME": "FENGYUN 1C DEB", "OBJECT_ID": "1999-025AXW", "EPOCH": "2025-12-16T17:30:34.092864", "MEAN_MOTION": 14.73587602, "ECCENTRICITY": 0.00664066, "INCLINATION": 98.8902, "RA_OF_ASC_NODE": 344.942, "ARG_OF_PERICENTER": 323.365, "MEAN_ANOMALY": 36.3024, "EPHEMERIS_TYPE": 0, "CLASSIFICATION_TYPE": "U", "NORAD_CAT_ID": 30884, "ELEMENT_SET_NO": 999, "REV_AT_EPOCH": 98720, "BSTAR": 0.0016248792, "MEAN_MOTION_DOT": 0.00010908, "MEAN_MOTION_DDOT": 0}, "tle": {"line1": "1 30884U 99025AXW 25350.72956126  .00010908  00000+0  16249-2 0  9992", "line2": "2 30884  98.8902 344.9420 0066406 323.3650  36.3024 14.73587602987208"}}, "geometry": {"type": "Point", "coordinates": [175.93586866234017, 45.320417107335636]}}, {"type": "Feature", "properties": {"norad_id": 30885, "name": "FENGYUN 1C DEB", "group": "fengyun-1c-debris", "lat": 41.52085485486809, "lon": -174.7117180580954, "alt_km": 759.4847827634803, "timestamp": "2025-12-18T10:51:26.086215+00:00", "meta": {"OBJECT_NAME": "FENGYUN 1C DEB", "OBJECT_ID": "1999-025AXX", "EPOCH": "2025-12-16T01:22:35.739840", "MEAN_MOTION": 14.49493905, "ECCENTRICITY": 0.00535183, "INCLINATION": 99.0268, "RA_OF_ASC_NODE": 190.8173, "ARG_OF_PERICENTER": 209.2289, "MEAN_ANOMALY": 302.5745, "EPHEMERIS_TYPE": 0, "CLASSIFICATION_TYPE": "U", "NORAD_CAT_ID": 30885, "ELEMENT_SET_NO": 999, "REV_AT_EPOCH": 97025, "BSTAR": 0.0017760427, "MEAN_MOTION_DOT": 6.884e-05, "MEAN_MOTION_DDOT": 0}, "tle": {"line1": "1 30885U 99025AXX 25350.05735810  .00006884  00000+0  17760-2 0  9991", "line2": "2 30885  99.0268 190.8173 0053518 209.2289 302.5745 14.49493905970250"}}, "geometry": {"type": "Point", "coordinates": [-174.7117180580954, 41.52085485486809]}}, {"type": "Feature", "properties": {"norad_id": 30886, "name": "FENGYUN 1C DEB", "group": "fengyun-1c-debris", "lat": 70.48112513856387, "lon": 92.92354119985531, "alt_km": 808.1750839886163, "timestamp": "2025-12-18T10:51:26.086226+00:00", "meta": {"OBJECT_NAME": "FENGYUN 1C DEB", "OBJECT_ID": "1999-025AXY", "EPOCH": "2025-12-17T15:47:33.549216", "MEAN_MOTION": 14.22820277, "ECCENTRICITY": 0.00364323, "INCLINATION": 99.2095, "RA_OF_ASC_NODE": 244.8568, "ARG_OF_PERICENTER": 20.9977, "MEAN_ANOMALY": 339.2686, "EPHEMERIS_TYPE": 0, "CLASSIFICATION_TYPE": "U", "NORAD_CAT_ID": 30886, "ELEMENT_SET_NO": 999, "REV_AT_EPOCH": 96466, "BSTAR": 0.0013990145, "MEAN_MOTION_DOT": 3.114e-05, "MEAN_MOTION_DDOT": 0}, "tle": {"line1": "1 30886U 99025AXY 25351.65802719  .00003114  00000+0  13990-2 0  9996", "line2": "2 30886  99.2095 244.8568 0036432  20.9977 339.2686 14.22820277964663"}}, "geometry": {"type": "Point", "coordinates": [92.92354119985531, 70.48112513856387]}}, {"type": "Feature", "properties": {"norad_id": 30887, "name": "FENGYUN 1C DEB", "group": "fengyun-1c-debris", "lat": 15.969949081036702, "lon": -129.34291895013334, "alt_km": 792.4713635901599, "timestamp": "2025-12-18T10:51:26.086236+00:00", "meta": {"OBJECT_NAME": "FENGYUN 1C DEB", "OBJECT_ID": "1999-025AXZ", "EPOCH": "2025-12-17T09:08:38.006880", "MEAN_MOTION": 14.44847466, "ECCENTRICITY": 0.02636009, "INCLINATION": 98.3694, "RA_OF_ASC_NODE": 47.1858, "ARG_OF_PERICENTER": 273.6664, "MEAN_ANOMALY": 83.4422, "EPHEMERIS_TYPE": 0, "CLASSIFICATION_TYPE": "U", "NORAD_CAT_ID": 30887, "ELEMENT_SET_NO": 999, "REV_AT_EPOCH": 98195, "BSTAR": 0.00052401079, "MEAN_MOTION_DOT": 2.737e-05, "MEAN_MOTION_DDOT": 0}, "tle": {"line1": "1 30887U 99025AXZ 25351.38099545  .00002737  00000+0  52401-3 0  9993", "line2": "2 30887  98.3694  47.1858 0263600 273.6664  83.4422 14.44847466981954"}}, "geometry": {"type": "Point", "coordinates": [-129.34291895013334, 15.969949081036702]}}, {"type": "Feature", "properties": {"norad_id": 30888, "name": "FENGYUN 1C DEB", "group": "fengyun-1c-debris", "lat": -79.43166121827764, "lon": 36.059057656607415, "alt_km": 638.1481293558381, "timestamp": "2025-12-18T10:51:26.086246+00:00", "meta": {"OBJECT_NAME": "FENGYUN 1C DEB", "OBJECT_ID": "1999-025AYA", "EPOCH": "2025-12-17T09:31:34.795200", "MEAN_MOTION": 14.93988857, "ECCENTRICITY": 0.00832707, "INCLINATION": 99.4832, "RA_OF_ASC_NODE": 331.1595, "ARG_OF_PERICENTER": 136.2102, "MEAN_ANOMALY": 224.5756, "EPHEMERIS_TYPE": 0, "CLASSIFICATION_TYPE": "U", "NORAD_CAT_ID": 30888, "ELEMENT_SET_NO": 999, "REV_AT_EPOCH": 99995, "BSTAR": 0.00069641676, "MEAN_MOTION_DOT": 7.868e-05, "MEAN_MOTION_DDOT": 0}, "tle": {"line1": "1 30888U 99025AYA 25351.39693050  .00007868  00000+0  69642-3 0  9991", "line2": "2 30888  99.4832 331.1595 0083270 136.2102 224.5756 14.93988857999950"}}, "geometry": {"type": "Point", "coordinates": [36.059057656607415, -79.43166121827764]}}, {"type": "Feature", "properties": {"norad_id": 30891, "name": "FENGYUN 1C DEB", "group": "fengyun-1c-debris", "lat": -2.685638961381178, "lon": -140.51592479470605, "alt_km": 837.1202150057261, "timestamp": "2025-12-18T10:51:26.086257+00:00", "meta": {"OBJECT_NAME": "FENGYUN 1C DEB", "OBJECT_ID": "1999-025AYD", "EPOCH": "2025-12-17T21:10:14.028384", "MEAN_MOTION": 14.05880408, "ECCENTRICITY": 0.00556131, "INCLINATION": 98.7846, "RA_OF_ASC_NODE": 39.3467, "ARG_OF_PERICENTER": 173.2876, "MEAN_ANOMALY": 4.5161, "EPHEMERIS_TYPE": 0, "CLASSIFICATION_TYPE": "U", "NORAD_CAT_ID": 30891, "ELEMENT_SET_NO": 999, "REV_AT_EPOCH": 96054, "BSTAR": 0.00080589867, "MEAN_MOTION_DOT": 1.294e-05, "MEAN_MOTION_DDOT": 0}, "tle": {"line1": "1 30891U 99025AYD 25351.88210681  .00001294  00000+0  80590-3 0  9996", "line2": "2 30891  98.7846  39.3467 0055613 173.2876   4.5161 14.05880408960540"}}, "geometry": {"type": "Point", "coordinates": [-140.51592479470605, -2.685638961381178]}}]}